{
    "links": {
        "self": "http://www.neowsapp.com/rest/v1/neo/3102778?api_key=iIulBulltgU6a56xZRHN4H3l9WmuAYTsLGpBGhQ2"
    },
    "id": "3102778",
    "neo_reference_id": "3102778",
    "name": "(2002 BM)",
    "designation": "2002 BM",
    "nasa_jpl_url": "http://ssd.jpl.nasa.gov/sbdb.cgi?sstr=3102778",
    "absolute_magnitude_h": 24.1,
    "estimated_diameter": {
        "kilometers": {
            "estimated_diameter_min": 0.040230458,
            "estimated_diameter_max": 0.0899580388
        },
        "meters": {
            "estimated_diameter_min": 40.2304579834,
            "estimated_diameter_max": 89.9580388169
        },
        "miles": {
            "estimated_diameter_min": 0.0249980399,
            "estimated_diameter_max": 0.0558973165
        },
        "feet": {
            "estimated_diameter_min": 131.9896957704,
            "estimated_diameter_max": 295.1379320721
        }
    },
    "is_potentially_hazardous_asteroid": false,
    "close_approach_data": [
        {
            "close_approach_date": "2002-01-19",
            "close_approach_date_full": "2002-Jan-19 22:33",
            "epoch_date_close_approach": 1011479580000,
            "relative_velocity": {
                "kilometers_per_second": "10.6295779454",
                "kilometers_per_hour": "38266.4806033889",
                "miles_per_hour": "23777.3029060335"
            },
            "miss_distance": {
                "astronomical": "0.0314801254",
                "lunar": "12.2457687806",
                "kilometers": "4709359.707172898",
                "miles": "2926260.4295380724"
            },
            "orbiting_body": "Earth"
        }
    ],
    "orbital_data": {
        "orbit_id": "8",
        "orbit_determination_date": "2017-04-06 09:15:31",
        "first_observation_date": "2002-01-19",
        "last_observation_date": "2002-01-21",
        "data_arc_in_days": 2,
        "observations_used": 23,
        "orbit_uncertainty": "9",
        "minimum_orbit_intersection": ".0206395",
        "jupiter_tisserand_invariant": "3.129",
        "epoch_osculation": "2452294.5",
        "eccentricity": ".6082566080652131",
        "semi_major_axis": "2.549157465442522",
        "inclination": "11.88533519850619",
        "ascending_node_longitude": "296.9685533395943",
        "orbital_period": "1486.597581374715",
        "perihelion_distance": ".9986155920883379",
        "perihelion_argument": "169.1413932389903",
        "aphelion_distance": "4.099699338796706",
        "perihelion_time": "2452284.457507876162",
        "mean_anomaly": "2.431927247748159",
        "mean_motion": ".2421637196981673",
        "equinox": "J2000",
        "orbit_class": {
            "orbit_class_type": "APO",
            "orbit_class_description": "Near-Earth asteroid orbits which cross the Earth’s orbit similar to that of 1862 Apollo",
            "orbit_class_range": "a (semi-major axis) > 1.0 AU; q (perihelion) < 1.017 AU"
        }
    },
    "is_sentry_object": false
}